STARLINK-32881          
1 62997U 25031S   26068.27242200  .00032603  00000+0  11892-2 0  9991
2 62997  43.0013 145.4957 0001164 231.6064 128.4683 15.27575290 61030
BANDWAGON-4 OBJECT N    
1 66305U 25248N   26068.03100984  .00024115  00000+0  97341-3 0  9997
2 66305  45.4084 294.9612 0013521 206.7837 153.2354 15.24369076 17177
